STARLINK-37526          
1 69463U 26127W   26185.38248754  .00265423  00000+0  16743-2 0  9993
2 69463  53.1572 176.3199 0001520  80.4829 279.6363 15.75342212  4123
STARLINK-37574          
1 69464U 26127X   26185.38701802  .00295006  00000+0  18568-2 0  9999
2 69464  53.1580 176.3496 0001068  41.0536 319.0564 15.75305945  4122
STARLINK-37535          
1 69465U 26127Y   26185.38216007  .00263831  00000+0  16665-2 0  9995
2 69465  53.1569 176.3162 0001371  62.0980 298.0179 15.75315609  4129
STARLINK-37583          
1 69466U 26127Z   26185.35525580  .00264229  00000+0  16675-2 0  9995
2 69466  53.1590 176.1367 0001179  90.7511 269.3644 15.75336591  4124
STARLINK-37546          
1 69467U 26127AA  26185.37796492  .00185798  00000+0  11902-2 0  9991
2 69467  53.1570 176.2857 0001668 100.5354 259.5855 15.75230466  4125
STARLINK-37532          
1 69468U 26127AB  26185.58335648 -.00188317  00000+0 -12456-2 0  9994
2 69468  53.1594 174.8441 0001131  80.9375 210.7180 15.75352442  5449
STARLINK-37708          
1 69469U 26127AC  26185.37759841  .00352425  00000+0  21861-2 0  9998
2 69469  53.1569 176.2820 0001009  24.3906 335.7162 15.75475417  4125
STARLINK-37686          
1 69470U 26127AD  26185.37340718  .00361848  00000+0  22546-2 0  9999
2 69470  53.1583 176.2554 0000294  89.6813 270.4241 15.75344178  4125
STARLINK-37451          
1 69471U 26127AE  26185.38872884  .00307348  00000+0  14957-2 0  9997
2 69471  53.1574 175.6198 0000356  45.6474 314.4578 15.81020231  4138
DTC TEST OBJECT A       
1 69472U 26128A   26185.51458204  .00022251  00000+0  35211-3 0  9994
2 69472  55.0003 225.0089 0010367 342.9479  17.1206 15.53373410  3927
DTC TEST OBJECT B       
1 69473U 26128B   26178.37654890  .00024134  00000+0  33565-3 0  9992
2 69473  55.0021 257.9040 0009934 325.3113  34.7274 15.56860342  2801
TJS-25                  
1 69474U 26129A   26185.38855758 -.00000358  00000+0  00000+0 0  9996
2 69474   5.9660 330.2858 0002639 285.5549 286.6830  1.00269368   238
STARLINK-37816          
1 69478U 26131A   26185.53307985  .00483791  00000+0  23513-2 0  9996
2 69478  97.2838 206.8169 0002427  16.2700 343.8646 15.81166308  4902
STARLINK-37878          
1 69479U 26131B   26185.03228761  .00419302  00000+0  20689-2 0  9994
2 69479  97.2840 206.2748 0001289 121.2281 238.9114 15.80998930  4827
STARLINK-37817          
1 69480U 26131C   26183.66668981  .00040756  00000+0  21289-3 0  9996
2 69480  97.2834 204.8472 0001807 101.2192  93.1313 15.80776829  4491
STARLINK-37727          
1 69481U 26131D   26185.53080314  .00466304  00000+0  22754-2 0  9991
2 69481  97.2841 206.8198 0003226 307.2778  52.8195 15.81122465  4900
STARLINK-37814          
1 69482U 26131E   26185.58335648 -.00177798  00000+0 -94114-3 0  9998
2 69482  97.2836 206.8770 0001582  73.4251 229.7563 15.80938457  4800
STARLINK-37869          
1 69483U 26131F   26185.00003472  .00061384  00000+0  31925-3 0  9995
2 69483  97.2832 206.2639 0001177  84.5685 145.4314 15.80795949  4714
STARLINK-37873          
1 69484U 26131G   26185.58335648 -.00164479  00000+0 -86964-3 0  9996
2 69484  97.2837 206.8806 0001016  94.8873 216.8334 15.80931115  4809
STARLINK-37892          
1 69485U 26131H   26185.58335648 -.00161217  00000+0 -85163-3 0  9994
2 69485  97.2838 206.8841 0001407  95.4085 220.5682 15.80940930  4809
STARLINK-37893          
1 69486U 26131J   26184.70416060  .00419312  00000+0  20786-2 0  9995
2 69486  97.2833 205.9552 0001325  98.9595 261.1823 15.80897235  4770
STARLINK-37842          
1 69487U 26131K   26185.52630680  .00526820  00000+0  25639-2 0  9998
2 69487  97.2842 206.8273 0000690 288.5945  71.5248 15.81022979  4906
STARLINK-37449          
1 69488U 26131L   26184.70263874  .00333366  00000+0  16560-2 0  9999
2 69488  97.2838 205.9575 0001406  75.3533 284.7891 15.81072024  4771
STARLINK-37831          
1 69489U 26131M   26185.52481383  .00571370  00000+0  27575-2 0  9995
2 69489  97.2833 206.8291 0001390  50.2531 309.8859 15.81093753  4904
STARLINK-37879          
1 69490U 26131N   26185.52406269  .00639805  00000+0  30840-2 0  9994
2 69490  97.2819 206.8298 0001016  88.8468 271.2917 15.80943257  4907
STARLINK-37856          
1 69491U 26131P   26184.70880395  .00305296  00000+0  15355-2 0  9998
2 69491  97.2827 205.9484 0001471 122.7377 237.4033 15.80872985  4773
STARLINK-37568          
1 69492U 26131Q   26185.33265833  .00393616  00000+0  19524-2 0  9998
2 69492  97.2843 206.6306 0001317  96.2066 263.9352 15.80950415  4876
STARLINK-37855          
1 69493U 26131R   26185.52870780  .00514524  00000+0  25022-2 0  9996
2 69493  97.2851 206.8222 0001525 334.4753  25.6440 15.81072712  4907
STARLINK-37854          
1 69494U 26131S   26185.00003472 -.00049536  00000+0 -25957-3 0  9992
2 69494  97.2833 206.2630 0001438  78.3313 148.5760 15.80795534  4772
STARLINK-37789          
1 69495U 26131T   26185.01389931  .00491078  00000+0  23998-2 0  9993
2 69495  97.2832 206.2987 0001508 133.7379 226.4014 15.81026756  3561
