OBJECT_NAME,OBJECT_ID,EPOCH,MEAN_MOTION,ECCENTRICITY,INCLINATION,RA_OF_ASC_NODE,ARG_OF_PERICENTER,MEAN_ANOMALY,EPHEMERIS_TYPE,CLASSIFICATION_TYPE,NORAD_CAT_ID,ELEMENT_SET_NO,REV_AT_EPOCH,BSTAR,MEAN_MOTION_DOT,MEAN_MOTION_DDOT
STARLINK-37526,2026-127W,2026-07-04T09:10:46.923456,15.75342212,.000152,53.1572,176.3199,80.4829,279.6363,0,U,69463,999,412,.16743262E-2,.265423E-2,0
STARLINK-37574,2026-127X,2026-07-04T09:17:18.356928,15.75305945,.00010689,53.1580,176.3496,41.0536,319.0564,0,U,69464,999,412,.18568339E-2,.295006E-2,0
STARLINK-37535,2026-127Y,2026-07-04T09:10:18.630048,15.75315609,.00013718,53.1569,176.3162,62.0980,298.0179,0,U,69465,999,412,.16665457E-2,.263831E-2,0
STARLINK-37583,2026-127Z,2026-07-04T08:31:34.101120,15.75336591,.00011799,53.1590,176.1367,90.7511,269.3644,0,U,69466,999,412,.16674542E-2,.264229E-2,0
STARLINK-37546,2026-127AA,2026-07-04T09:04:16.169088,15.75230466,.0001668,53.1570,176.2857,100.5354,259.5855,0,U,69467,999,412,.11902045E-2,.185798E-2,0
STARLINK-37532,2026-127AB,2026-07-04T14:00:01.999872,15.75352442,.00011315,53.1594,174.8441,80.9375,210.7180,0,U,69468,999,544,-.12455887E-2,-.188317E-2,0
STARLINK-37708,2026-127AC,2026-07-04T09:03:44.502624,15.75475417,.00010093,53.1569,176.2820,24.3906,335.7162,0,U,69469,999,412,.21860632E-2,.352425E-2,0
STARLINK-37686,2026-127AD,2026-07-04T08:57:42.380352,15.75344178,.00002942,53.1583,176.2554,89.6813,270.4241,0,U,69470,999,412,.22545809E-2,.361848E-2,0
STARLINK-37451,2026-127AE,2026-07-04T09:19:46.171776,15.81020231,.00003562,53.1574,175.6198,45.6474,314.4578,0,U,69471,999,413,.1495691E-2,.307348E-2,0
DTC TEST OBJECT A,2026-128A,2026-07-04T12:20:59.888256,15.53373410,.00103678,55.0003,225.0089,342.9479,17.1206,0,U,69472,999,392,.3521063E-3,.22251E-3,0
DTC TEST OBJECT B,2026-128B,2026-06-27T09:02:13.824960,15.56860342,.0009934,55.0021,257.9040,325.3113,34.7274,0,U,69473,999,280,.3356545E-3,.24134E-3,0
TJS-25,2026-129A,2026-07-04T09:19:31.374912,1.00269368,.00026395,5.9660,330.2858,285.5549,286.6830,0,U,69474,999,23,0,-.358E-5,0
STARLINK-37816,2026-131A,2026-07-04T12:47:38.099040,15.81166308,.00024278,97.2838,206.8169,16.2700,343.8646,0,U,69478,999,490,.2351273E-2,.483791E-2,0
STARLINK-37878,2026-131B,2026-07-04T00:46:29.649504,15.80998930,.00012897,97.2840,206.2748,121.2281,238.9114,0,U,69479,999,482,.20689234E-2,.419302E-2,0
STARLINK-37817,2026-131C,2026-07-02T16:00:01.999584,15.80776829,.0001807,97.2834,204.8472,101.2192,93.1313,0,U,69480,999,449,.21289028E-3,.40756E-3,0
STARLINK-37727,2026-131D,2026-07-04T12:44:21.391296,15.81122465,.00032261,97.2841,206.8198,307.2778,52.8195,0,U,69481,999,490,.22754101E-2,.466304E-2,0
STARLINK-37814,2026-131E,2026-07-04T14:00:01.999872,15.80938457,.00015821,97.2836,206.8770,73.4251,229.7563,0,U,69482,999,480,-.94114286E-3,-.177798E-2,0
STARLINK-37869,2026-131F,2026-07-04T00:00:02.999808,15.80795949,.00011771,97.2832,206.2639,84.5685,145.4314,0,U,69483,999,471,.31925138E-3,.61384E-3,0
STARLINK-37873,2026-131G,2026-07-04T14:00:01.999872,15.80931115,.00010164,97.2837,206.8806,94.8873,216.8334,0,U,69484,999,480,-.86963746E-3,-.164479E-2,0
STARLINK-37892,2026-131H,2026-07-04T14:00:01.999872,15.80940930,.00014079,97.2838,206.8841,95.4085,220.5682,0,U,69485,999,480,-.85162646E-3,-.161217E-2,0
STARLINK-37893,2026-131J,2026-07-03T16:53:59.475840,15.80897235,.00013254,97.2833,205.9552,98.9595,261.1823,0,U,69486,999,477,.2078583E-2,.419312E-2,0
STARLINK-37842,2026-131K,2026-07-04T12:37:52.907520,15.81022979,.00006902,97.2842,206.8273,288.5945,71.5248,0,U,69487,999,490,.25638732E-2,.52682E-2,0
STARLINK-37449,2026-131L,2026-07-03T16:51:47.987136,15.81072024,.00014061,97.2838,205.9575,75.3533,284.7891,0,U,69488,999,477,.16560264E-2,.333366E-2,0
STARLINK-37831,2026-131M,2026-07-04T12:35:43.914912,15.81093753,.00013909,97.2833,206.8291,50.2531,309.8859,0,U,69489,999,490,.27575403E-2,.57137E-2,0
STARLINK-37879,2026-131N,2026-07-04T12:34:39.016416,15.80943257,.00010162,97.2819,206.8298,88.8468,271.2917,0,U,69490,999,490,.3084004E-2,.639805E-2,0
STARLINK-37856,2026-131P,2026-07-03T17:00:40.661280,15.80872985,.00014716,97.2827,205.9484,122.7377,237.4033,0,U,69491,999,477,.15354723E-2,.305296E-2,0
STARLINK-37568,2026-131Q,2026-07-04T07:59:01.679712,15.80950415,.00013173,97.2843,206.6306,96.2066,263.9352,0,U,69492,999,487,.19523531E-2,.393616E-2,0
STARLINK-37855,2026-131R,2026-07-04T12:41:20.353920,15.81072712,.00015253,97.2851,206.8222,334.4753,25.6440,0,U,69493,999,490,.25022187E-2,.514524E-2,0
STARLINK-37854,2026-131S,2026-07-04T00:00:02.999808,15.80795534,.00014386,97.2833,206.2630,78.3313,148.5760,0,U,69494,999,477,-.25957274E-3,-.49536E-3,0
STARLINK-37789,2026-131T,2026-07-04T00:20:00.900384,15.81026756,.00015087,97.2832,206.2987,133.7379,226.4014,0,U,69495,999,356,.23997843E-2,.491078E-2,0
